{
  "norad_id": 65019,
  "name": "STARLINK-34232",
  "history": [
    {
      "epoch": "2026-03-28T19:14:30.697152",
      "apogee_km": 475.932258563309,
      "perigee_km": 474.44029008648886,
      "latitude_deg": 20.40873020553118,
      "longitude_deg": 38.86744127981365,
      "semi_major_axis_km": 6853.323274324899,
      "eccentricity": 0.00010885,
      "inclination_deg": 53.158,
      "raan_deg": 205.5963,
      "arg_perigee_deg": 73.028,
      "mean_anomaly_deg": 287.084,
      "mean_motion_rev_day": 15.30209644
    }
  ]
}